{
  "norad_id": 62111,
  "name": "GUANGCHUAN 01",
  "history": [
    {
      "epoch": "2026-03-28T19:11:01.603968",
      "apogee_km": 528.9376632216945,
      "perigee_km": 518.753511834494,
      "latitude_deg": 46.278679478505,
      "longitude_deg": 107.83511552005075,
      "semi_major_axis_km": 6901.982587528094,
      "eccentricity": 0.00073777,
      "inclination_deg": 49.9435,
      "raan_deg": 193.3496,
      "arg_perigee_deg": 330.3437,
      "mean_anomaly_deg": 29.7094,
      "mean_motion_rev_day": 15.1405612
    },
    {
      "epoch": "2026-03-29T03:06:13.089024",
      "apogee_km": 528.9274105186296,
      "perigee_km": 518.7373429308327,
      "latitude_deg": 9.041675484368145,
      "longitude_deg": 139.5145433600992,
      "semi_major_axis_km": 6901.969376724731,
      "eccentricity": 0.0007382,
      "inclination_deg": 49.9433,
      "raan_deg": 191.7444,
      "arg_perigee_deg": 331.661,
      "mean_anomaly_deg": 28.3938,
      "mean_motion_rev_day": 15.14060467
    }
  ]
}